NORAD_CAT_ID,OBJECT_NAME,OBJECT_TYPE,EPOCH,MEAN_MOTION,ECCENTRICITY,INCLINATION,RA_OF_ASC_NODE,ARG_OF_PERICENTER,MEAN_ANOMALY,BSTAR,MEAN_MOTION_DOT,MEAN_MOTION_DDOT,TLE_LINE0,TLE_LINE1,TLE_LINE2,SEMIMAJOR_AXIS,PERIOD,APOGEE,PERIGEE,DECAYED
52636.0,STARLINK-3967,PAYLOAD,2023-11-02 21:29:42,15.08842759,0.000141,53.2161,159.9095,94.6317,265.4836,4.6722e-05,4.56e-06,0.0,0 STARLINK-3967,1 52636U 22052AQ  23306.89563621  .00000456  00000-0  46722-4 0  9997,2 52636  53.2161 159.9095 0001410  94.6317 265.4836 15.08842759 81873,6917.872,95.437,540.712,538.762,0.0
52636.0,STARLINK-3967,PAYLOAD,2023-11-03 07:02:02,15.08832166,0.0001463,53.2152,158.1246,96.5997,263.5162,-8.5312e-05,-1.645e-05,0.0,0 STARLINK-3967,1 52636U 22052AQ  23307.29308145 -.00001645  00000-0 -85312-4 0  9991,2 52636  53.2152 158.1246 0001463  96.5997 263.5162 15.08832166 81934,6917.904,95.438,540.781,538.757,0.0
52636.0,STARLINK-3967,PAYLOAD,2023-11-03 13:23:34,15.08834663,0.0001327,53.2152,156.9348,89.9043,270.2101,-3.1172e-05,-7.84e-06,0.0,0 STARLINK-3967,1 52636U 22052AQ  23307.55804169 -.00000784  00000-0 -31172-4 0  9995,2 52636  53.2152 156.9348 0001327  89.9043 270.2101 15.08834663 81594,6917.897,95.438,540.68,538.844,0.0
52636.0,STARLINK-3967,PAYLOAD,2023-11-03 21:20:30,15.08840877,0.0001278,53.2153,155.4489,95.7658,264.348,0.00026693,3.963e-05,0.0,0 STARLINK-3967,1 52636U 22052AQ  23307.88924043  .00003963  00000-0  26693-3 0  9996,2 52636  53.2153 155.4489 0001278  95.7658 264.3480 15.08840877 81641,6917.878,95.437,540.627,538.859,0.0
52636.0,STARLINK-3967,PAYLOAD,2023-11-03 22:55:53,15.0884377,0.0001303,53.2153,155.1514,93.8604,266.2537,0.00036883,5.587e-05,0.0,0 STARLINK-3967,1 52636U 22052AQ  23307.95548025  .00005587  00000-0  36883-3 0  9992,2 52636  53.2153 155.1514 0001303  93.8604 266.2537 15.08843770 82039,6917.869,95.437,540.635,538.832,0.0
52636.0,STARLINK-3967,PAYLOAD,2023-11-04 06:52:49,15.08838305,0.000124,53.2152,153.6646,93.6149,266.4984,0.00033783,5.093e-05,0.0,0 STARLINK-3967,1 52636U 22052AQ  23308.28668198  .00005093  00000-0  33783-3 0  9991,2 52636  53.2152 153.6646 0001240  93.6149 266.4984 15.08838305 82080,6917.886,95.438,540.608,538.893,0.0
52636.0,STARLINK-3967,PAYLOAD,2023-11-04 21:11:17,15.08846762,0.0001228,53.2151,150.9883,91.7491,268.3641,0.00050721,7.795e-05,0.0,0 STARLINK-3967,1 52636U 22052AQ  23308.88284231  .00007795  00000-0  50721-3 0  9991,2 52636  53.2151 150.9883 0001228  91.7491 268.3641 15.08846762 81791,6917.86,95.437,540.574,538.875,0.0
52636.0,STARLINK-3967,PAYLOAD,2023-11-05 13:05:08,15.0884782,0.0001247,53.2153,148.015,91.2051,268.9084,0.00037164,5.633e-05,0.0,0 STARLINK-3967,1 52636U 22052AQ  23309.54524126  .00005633  00000-0  37164-3 0  9990,2 52636  53.2153 148.0150 0001247  91.2051 268.9084 15.08847820 81890,6917.856,95.437,540.584,538.859,0.0
52636.0,STARLINK-3967,PAYLOAD,2023-11-05 19:26:41,15.08852842,0.000129,53.215,146.8249,86.1413,273.9726,0.00046346,7.098e-05,0.0,0 STARLINK-3967,1 52636U 22052AQ  23309.81019932  .00007098  00000-0  46346-3 0  9993,2 52636  53.2150 146.8249 0001290  86.1413 273.9726 15.08852842 82312,6917.841,95.437,540.599,538.814,0.0
52636.0,STARLINK-3967,PAYLOAD,2023-11-05 21:02:04,15.08864494,0.0001305,53.2151,146.5274,85.2392,274.8749,0.00085403,0.00013339,0.0,0 STARLINK-3967,1 52636U 22052AQ  23309.87643744  .00013339  00000-0  85403-3 0  9995,2 52636  53.2151 146.5274 0001305  85.2392 274.8749 15.08864494 81940,6917.806,95.436,540.573,538.768,0.0
52636.0,STARLINK-3967,PAYLOAD,2023-11-06 06:34:22,15.08857208,0.0001296,53.2151,144.7434,84.6562,275.4578,0.00041371,6.305e-05,0.0,0 STARLINK-3967,1 52636U 22052AQ  23310.27387510  .00006305  00000-0  41371-3 0  9998,2 52636  53.2151 144.7434 0001296  84.6562 275.4578 15.08857208 82380,6917.828,95.436,540.589,538.796,0.0
52636.0,STARLINK-3967,PAYLOAD,2023-11-06 12:55:55,15.08852049,0.0001437,53.2155,143.5543,89.8772,270.2385,0.0002387,3.514e-05,0.0,0 STARLINK-3967,1 52636U 22052AQ  23310.53883510  .00003514  00000-0  23870-3 0  9991,2 52636  53.2155 143.5543 0001437  89.8772 270.2385 15.08852049 82049,6917.844,95.437,540.703,538.714,0.0
52636.0,STARLINK-3967,PAYLOAD,2023-11-06 19:17:27,15.08850552,0.0001344,53.215,142.3641,92.3988,267.7158,0.00016961,2.413e-05,0.0,0 STARLINK-3967,1 52636U 22052AQ  23310.80379336  .00002413  00000-0  16961-3 0  9997,2 52636  53.2150 142.3641 0001344  92.3988 267.7158 15.08850552 82467,6917.848,95.437,540.643,538.783,0.0
52636.0,STARLINK-3967,PAYLOAD,2023-11-07 06:25:09,15.08843682,0.0001293,53.2159,140.2836,81.8015,278.3124,2.0463e-05,3.8e-07,0.0,0 STARLINK-3967,1 52636U 22052AQ  23311.26747554  .00000038  00000-0  20463-4 0  9993,2 52636  53.2159 140.2836 0001293  81.8015 278.3124 15.08843682 82531,6917.869,95.437,540.629,538.84,0.0
52636.0,STARLINK-3967,PAYLOAD,2023-11-07 12:46:42,15.08836735,0.0001933,53.2166,139.0931,87.8714,272.2499,-0.00022657,-3.892e-05,0.0,0 STARLINK-3967,1 52636U 22052AQ  23311.53244071 -.00003892  00000-0 -22657-3 0  9998,2 52636  53.2166 139.0931 0001933  87.8714 272.2499 15.08836735 82195,6917.89,95.438,541.093,538.418,0.0
52636.0,STARLINK-3967,PAYLOAD,2023-11-07 19:08:15,15.08825529,0.0001483,53.2165,137.9043,89.1787,270.9375,-0.00029563,-4.988e-05,0.0,0 STARLINK-3967,1 52636U 22052AQ  23311.79740585 -.00004988  00000-0 -29563-3 0  9997,2 52636  53.2165 137.9043 0001483  89.1787 270.9375 15.08825529 82614,6917.925,95.438,540.816,538.764,0.0
52636.0,STARLINK-3967,PAYLOAD,2023-11-08 12:37:30,15.08832369,0.0001597,53.2162,134.6323,90.095,270.0226,-7.4413e-05,-1.472e-05,0.0,0 STARLINK-3967,1 52636U 22052AQ  23312.52605133 -.00001472  00000-0 -74413-4 0  9998,2 52636  53.2162 134.6323 0001597  90.0950 270.0226 15.08832369 82341,6917.904,95.438,540.874,538.664,0.0
52636.0,STARLINK-3967,PAYLOAD,2023-11-08 18:59:03,15.08834381,0.0001536,53.2155,133.4432,89.4623,270.6545,0.00020712,3.009e-05,0.0,0 STARLINK-3967,1 52636U 22052AQ  23312.79101339  .00003009  00000-0  20712-3 0  9994,2 52636  53.2155 133.4432 0001536  89.4623 270.6545 15.08834381 82765,6917.898,95.438,540.825,538.7,0.0
52636.0,STARLINK-3967,PAYLOAD,2023-11-09 18:49:50,15.08846438,0.0001547,53.2163,128.983,91.9899,268.127,0.00044767,6.845e-05,0.0,0 STARLINK-3967,1 52636U 22052AQ  23313.78461156  .00006845  00000-0  44767-3 0  9997,2 52636  53.2163 128.9830 0001547  91.9899 268.1270 15.08846438 82538,6917.861,95.437,540.796,538.656,0.0
52636.0,STARLINK-3967,PAYLOAD,2023-11-10 04:22:09,15.08844821,0.0001556,53.2155,127.1984,88.9221,271.1949,0.0003087,4.629e-05,0.0,0 STARLINK-3967,1 52636U 22052AQ  23314.18205218  .00004629  00000-0  30870-3 0  9995,2 52636  53.2155 127.1984 0001556  88.9221 271.1949 15.08844821 82974,6917.866,95.437,540.807,538.654,0.0
52636.0,STARLINK-3967,PAYLOAD,2023-11-10 18:40:37,15.08845086,0.0001384,53.2158,124.5215,85.8831,274.2319,0.00013756,1.902e-05,0.0,0 STARLINK-3967,1 52636U 22052AQ  23314.77820988  .00001902  00000-0  13756-3 0  9992,2 52636  53.2158 124.5215 0001384  85.8831 274.2319 15.08845086 82684,6917.865,95.437,540.687,538.772,0.0
52636.0,STARLINK-3967,PAYLOAD,2023-11-11 20:06:47,15.08846048,0.0001384,53.2158,119.7639,87.3741,272.7409,3.6072e-06,-2.31e-06,0.0,0 STARLINK-3967,1 52636U 22052AQ  23315.83804671 -.00000231  00000-0  36072-5 0  9994,2 52636  53.2158 119.7639 0001384  87.3741 272.7409 15.08846048 83220,6917.862,95.437,540.684,538.769,0.0
52636.0,STARLINK-3967,PAYLOAD,2023-11-12 10:25:15,15.08840626,0.0001337,53.2168,117.0882,89.3039,270.8107,9.8676e-05,1.283e-05,0.0,0 STARLINK-3967,1 52636U 22052AQ  23316.43421163  .00001283  00000-0  98676-4 0  9996,2 52636  53.2168 117.0882 0001337  89.3039 270.8107 15.08840626 83312,6917.878,95.438,540.668,538.819,0.0
52636.0,STARLINK-3967,PAYLOAD,2023-11-12 18:22:11,15.0884527,0.0001361,53.2169,115.6015,88.8559,271.2589,0.00013264,1.824e-05,0.0,0 STARLINK-3967,1 52636U 22052AQ  23316.76540760  .00001824  00000-0  13264-3 0  9997,2 52636  53.2169 115.6015 0001361  88.8559 271.2589 15.08845270 82984,6917.864,95.437,540.671,538.788,0.0
52636.0,STARLINK-3967,PAYLOAD,2023-11-13 10:16:02,15.08843357,0.0001443,53.217,112.6271,84.8305,275.2852,9.9715e-05,1.3e-05,0.0,0 STARLINK-3967,1 52636U 22052AQ  23317.42780917  .00001300  00000-0  99715-4 0  9996,2 52636  53.2170 112.6271 0001443  84.8305 275.2852 15.08843357 83086,6917.87,95.437,540.733,538.737,0.0
52636.0,STARLINK-3967,PAYLOAD,2023-11-13 16:37:35,15.08846133,0.0001432,53.2169,111.4379,84.5165,275.5991,0.00011538,1.549e-05,0.0,0 STARLINK-3967,1 52636U 22052AQ  23317.69276630  .00001549  00000-0  11538-3 0  9998,2 52636  53.2169 111.4379 0001432  84.5165 275.5991 15.08846133 83508,6917.862,95.437,540.717,538.736,0.0
52636.0,STARLINK-3967,PAYLOAD,2023-11-14 03:45:17,15.08844,0.0001401,53.2171,109.3568,83.783,276.3321,8.9738e-05,1.141e-05,0.0,0 STARLINK-3967,1 52636U 22052AQ  23318.15644727  .00001141  00000-0  89738-4 0  9992,2 52636  53.2171 109.3568 0001401  83.7830 276.3321 15.08844000 83195,6917.868,95.437,540.702,538.764,0.0
52636.0,STARLINK-3967,PAYLOAD,2023-11-14 19:39:08,15.08840542,0.0001546,53.2179,106.3851,77.5259,282.5906,4.0203e-05,3.52e-06,0.0,0 STARLINK-3967,1 52636U 22052AQ  23318.81885093  .00000352  00000-0  40203-4 0  9995,2 52636  53.2179 106.3851 0001546  77.5259 282.5906 15.08840542 83679,6917.879,95.438,540.813,538.674,0.0
52636.0,STARLINK-3967,PAYLOAD,2023-11-15 13:08:23,15.08840621,0.000145,53.2186,103.1147,75.8181,284.2972,4.3569e-05,4.06e-06,0.0,0 STARLINK-3967,1 52636U 22052AQ  23319.54749006  .00000406  00000-0  43569-4 0  9997,2 52636  53.2186 103.1147 0001450  75.8181 284.2972 15.08840621 83400,6917.878,95.438,540.747,538.74,0.0
52636.0,STARLINK-3967,PAYLOAD,2023-11-16 16:09:56,15.08837411,0.0001375,53.2176,98.0568,91.5584,268.5566,1.0466e-06,-2.71e-06,0.0,0 STARLINK-3967,1 52636U 22052AQ  23320.67357210 -.00000271  00000-0  10466-5 0  9997,2 52636  53.2176  98.0568 0001375  91.5584 268.5566 15.08837411 83953,6917.888,95.438,540.705,538.802,0.0
